STARLINK-31533          
1 59505U 24071X   26068.12628725 -.00002636  00000+0 -86332-4 0  9997
2 59505  43.0048 343.4260 0000480 318.9202  41.1613 15.27566900108112
FLOCK 4G-25             
1 62646U 25009AP  26068.74572546  .00010373  00000+0  38902-3 0  9990
2 62646  97.4049 151.4141 0000828 316.3151  43.8023 15.27424196 63734
